{
  "type": "FeatureCollection",
  "features": [
    {
      "type": "Feature",
      "geometry": {
        "coordinates": [
          [
            -38.879242,
            -12.326486
          ],
          [
            -38.838043,
            -12.385528
          ],
          [
            -38.818817,
            -12.43919
          ],
          [
            -38.796844,
            -12.490159
          ],
          [
            -38.741913,
            -12.549163
          ],
          [
            -38.675995,
            -12.589386
          ],
          [
            -38.60321,
            -12.640325
          ],
          [
            -38.524933,
            -12.688574
          ],
          [
            -38.460388,
            -12.76227
          ],
          [
            -38.489227,
            -12.794421
          ]
        ],
        "type": "LineString"
      },
      "properties": {
        "_umap_options": {
          "color": "Red",
          "opacity": 1,
          "weight": 6
        }
      },
      "id": "iehS6"
    },
    {
      "type": "Feature",
      "geometry": {
        "coordinates": [
          [
            -39.699097,
            -12.70192
          ],
          [
            -39.885864,
            -12.7314
          ],
          [
            -40.001221,
            -12.902848
          ],
          [
            -40.144043,
            -13.023327
          ],
          [
            -40.413208,
            -13.218647
          ],
          [
            -40.509338,
            -13.373721
          ],
          [
            -40.575256,
            -13.504654
          ],
          [
            -40.825195,
            -13.611485
          ],
          [
            -40.968018,
            -13.688907
          ],
          [
            -41.069641,
            -13.73695
          ],
          [
            -41.105347,
            -13.85968
          ],
          [
            -41.160278,
            -13.977014
          ],
          [
            -41.21521,
            -14.102281
          ],
          [
            -41.289368,
            -14.131589
          ],
          [
            -41.5448,
            -14.136918
          ],
          [
            -41.665649,
            -14.283398
          ]
        ],
        "type": "LineString"
      },
      "properties": {
        "_umap_options": {
          "opacity": 1,
          "weight": 5,
          "color": "Red"
        }
      },
      "id": "2rFE7"
    },
    {
      "type": "Feature",
      "geometry": {
        "coordinates": [
          [
            -39.438171,
            -12.762252
          ],
          [
            -39.328308,
            -12.747463
          ],
          [
            -39.261017,
            -12.732725
          ],
          [
            -39.217072,
            -12.732786
          ],
          [
            -39.150467,
            -12.77231
          ],
          [
            -39.028244,
            -12.825883
          ],
          [
            -38.823624,
            -12.869402
          ]
        ],
        "type": "LineString"
      },
      "properties": {
        "_umap_options": {
          "color": "Red",
          "opacity": 1,
          "weight": 6
        }
      },
      "id": "V260z"
    },
    {
      "type": "Feature",
      "geometry": {
        "coordinates": [
          [
            -39.70047,
            -12.700566
          ],
          [
            -39.585114,
            -12.743444
          ],
          [
            -39.513702,
            -12.763541
          ],
          [
            -39.425812,
            -12.762201
          ]
        ],
        "type": "LineString"
      },
      "properties": {
        "_umap_options": {
          "opacity": 1,
          "weight": 6,
          "color": "Red"
        }
      },
      "id": "bixrh"
    },
    {
      "type": "Feature",
      "geometry": {
        "coordinates": [
          [
            -39.002838,
            -12.255372
          ],
          [
            -39.561768,
            -12.557229
          ],
          [
            -39.70047,
            -12.700566
          ]
        ],
        "type": "LineString"
      },
      "properties": {
        "_umap_options": {
          "color": "Red",
          "opacity": 1,
          "weight": 5
        }
      },
      "id": "ujoXL"
    },
    {
      "type": "Feature",
      "geometry": {
        "type": "Point",
        "coordinates": [
          -38.4903857,
          -12.7926188
        ]
      },
      "properties": {
        "osm_type": "N",
        "osm_id": 1181489936,
        "osm_key": "man_made",
        "osm_value": "lighthouse",
        "type": "house",
        "name": "Aratu",
        "street": "Estrada da Base Naval de Aratu",
        "district": "Quilombo do Alto do Tororó",
        "city": "Salvador",
        "state": "Bahia",
        "country": "Brazil",
        "postcode": "40800-272",
        "countrycode": "BR",
        "_umap_options": {
          "color": "Red",
          "iconSize": 28
        }
      },
      "id": "xKqOm"
    },
    {
      "type": "Feature",
      "geometry": {
        "type": "Point",
        "coordinates": [
          -41.6592397,
          -14.2950215
        ]
      },
      "properties": {
        "osm_type": "R",
        "osm_id": 6402358,
        "osm_key": "place",
        "osm_value": "district",
        "type": "district",
        "name": "Brumado",
        "city": "Brumado",
        "state": "Bahia",
        "country": "Brazil",
        "countrycode": "BR",
        "extent": [
          -41.9094833,
          -14.0804117,
          -41.4430127,
          -14.5091999
        ]
      },
      "id": "6cJhC"
    },
    {
      "type": "Feature",
      "geometry": {
        "type": "Point",
        "coordinates": [
          -39.6974476,
          -12.7073174
        ]
      },
      "properties": {
        "osm_type": "R",
        "osm_id": 362258,
        "osm_key": "place",
        "osm_value": "municipality",
        "type": "city",
        "name": "Itatim",
        "state": "Bahia",
        "country": "Brazil",
        "countrycode": "BR",
        "extent": [
          -39.8556988,
          -12.5484789,
          -39.6343805,
          -12.8872204
        ]
      },
      "id": "XEsc3"
    },
    {
      "type": "Feature",
      "geometry": {
        "type": "Point",
        "coordinates": [
          -38.8261808,
          -12.8661715
        ]
      },
      "properties": {
        "osm_type": "N",
        "osm_id": 5147915543,
        "osm_key": "place",
        "osm_value": "village",
        "type": "district",
        "name": "Enseada",
        "city": "Maragogipe",
        "state": "Bahia",
        "country": "Brazil",
        "postcode": "44220-000",
        "countrycode": "BR"
      },
      "id": "6DE0p"
    },
    {
      "type": "Feature",
      "geometry": {
        "coordinates": [
          [
            -39.001465,
            -12.254128
          ],
          [
            -38.931427,
            -12.247547
          ],
          [
            -38.877869,
            -12.328079
          ]
        ],
        "type": "LineString"
      },
      "properties": {
        "_umap_options": {
          "color": "Red",
          "opacity": 1,
          "weight": 5
        }
      },
      "id": "Yjnzs"
    },
    {
      "type": "Feature",
      "geometry": {
        "coordinates": [
          [
            -38.485107,
            -12.790788
          ],
          [
            -38.318939,
            -12.700633
          ]
        ],
        "type": "LineString"
      },
      "properties": {
        "_umap_options": {
          "color": "Red",
          "opacity": 1,
          "weight": 5
        }
      },
      "id": "52Kxa"
    },
    {
      "type": "Feature",
      "geometry": {
        "type": "Point",
        "coordinates": [
          -38.3260762,
          -12.6998188
        ]
      },
      "properties": {
        "osm_type": "R",
        "osm_id": 362505,
        "osm_key": "place",
        "osm_value": "municipality",
        "type": "city",
        "name": "Camaçari",
        "state": "Bahia",
        "country": "Brazil",
        "countrycode": "BR",
        "extent": [
          -38.3757549,
          -12.4530477,
          -38.0304294,
          -12.8805634
        ]
      },
      "id": "2ksk6"
    },
    {
      "type": "Feature",
      "geometry": {
        "type": "Point",
        "coordinates": [
          -38.9598047,
          -12.2578934
        ]
      },
      "properties": {
        "osm_type": "R",
        "osm_id": 362294,
        "osm_key": "place",
        "osm_value": "municipality",
        "type": "city",
        "name": "Feira de Santana",
        "state": "Bahia",
        "country": "Brazil",
        "countrycode": "BR",
        "extent": [
          -39.2965089,
          -11.9813841,
          -38.8115579,
          -12.4186643
        ]
      },
      "id": "P2EPj"
    },
    {
      "type": "Feature",
      "geometry": {
        "coordinates": [
          [
            -38.958893,
            -12.250876
          ],
          [
            -38.784485,
            -12.242821
          ],
          [
            -38.641663,
            -12.264299
          ],
          [
            -38.546906,
            -12.227383
          ],
          [
            -38.486481,
            -12.168306
          ],
          [
            -38.423309,
            -12.138763
          ]
        ],
        "type": "LineString"
      },
      "properties": {
        "_umap_options": {
          "color": "Red",
          "opacity": 1,
          "weight": 5
        }
      },
      "id": "eogoW"
    },
    {
      "type": "Feature",
      "geometry": {
        "type": "Point",
        "coordinates": [
          -38.420772,
          -12.133526
        ]
      },
      "properties": {
        "osm_type": "R",
        "osm_id": 20666879,
        "osm_key": "place",
        "osm_value": "district",
        "type": "district",
        "name": "Alagoinhas",
        "city": "Alagoinhas",
        "state": "Bahia",
        "country": "Brazil",
        "countrycode": "BR",
        "extent": [
          -38.4752558,
          -12.022009,
          -38.275,
          -12.237576
        ]
      },
      "id": "Y71e6"
    },
    {
      "type": "Feature",
      "geometry": {
        "coordinates": [
          [
            -38.318768,
            -12.700346
          ],
          [
            -38.318081,
            -12.693646
          ],
          [
            -38.318424,
            -12.687113
          ],
          [
            -38.313446,
            -12.682087
          ],
          [
            -38.310871,
            -12.65612
          ],
          [
            -38.308125,
            -12.643555
          ],
          [
            -38.296967,
            -12.614735
          ],
          [
            -38.296795,
            -12.603676
          ],
          [
            -38.290787,
            -12.593286
          ],
          [
            -38.280659,
            -12.587589
          ],
          [
            -38.289585,
            -12.573679
          ],
          [
            -38.297825,
            -12.566305
          ],
          [
            -38.291988,
            -12.546863
          ],
          [
            -38.291473,
            -12.528761
          ],
          [
            -38.30452,
            -12.520547
          ],
          [
            -38.307095,
            -12.509819
          ],
          [
            -38.315506,
            -12.504287
          ],
          [
            -38.322372,
            -12.495905
          ],
          [
            -38.323574,
            -12.488361
          ],
          [
            -38.333015,
            -12.483164
          ],
          [
            -38.330956,
            -12.470255
          ],
          [
            -38.326492,
            -12.464219
          ],
          [
            -38.327522,
            -12.456674
          ],
          [
            -38.323574,
            -12.441416
          ],
          [
            -38.329067,
            -12.433871
          ],
          [
            -38.323574,
            -12.420624
          ],
          [
            -38.325806,
            -12.413413
          ],
          [
            -38.340054,
            -12.406034
          ],
          [
            -38.342113,
            -12.395301
          ],
          [
            -38.35104,
            -12.381549
          ],
          [
            -38.36031,
            -12.377021
          ],
          [
            -38.364086,
            -12.362764
          ],
          [
            -38.374214,
            -12.352868
          ],
          [
            -38.381252,
            -12.352701
          ],
          [
            -38.385887,
            -12.344985
          ],
          [
            -38.382282,
            -12.335256
          ],
          [
            -38.379536,
            -12.329385
          ],
          [
            -38.382969,
            -12.321836
          ],
          [
            -38.370781,
            -12.310093
          ],
          [
            -38.371468,
            -12.30506
          ],
          [
            -38.35928,
            -12.296001
          ],
          [
            -38.35413,
            -12.283753
          ],
          [
            -38.356018,
            -12.270498
          ],
          [
            -38.375931,
            -12.244322
          ],
          [
            -38.380051,
            -12.238281
          ],
          [
            -38.387089,
            -12.23912
          ],
          [
            -38.392239,
            -12.229891
          ],
          [
            -38.404598,
            -12.218815
          ],
          [
            -38.401165,
            -12.210424
          ],
          [
            -38.40065,
            -12.201026
          ],
          [
            -38.402882,
            -12.193977
          ],
          [
            -38.410435,
            -12.170143
          ],
          [
            -38.419361,
            -12.158561
          ],
          [
            -38.425884,
            -12.155372
          ],
          [
            -38.431377,
            -12.145636
          ],
          [
            -38.422623,
            -12.138355
          ]
        ],
        "type": "LineString"
      },
      "properties": {
        "_umap_options": {
          "color": "Red",
          "opacity": 1,
          "weight": 5
        }
      },
      "id": "HpH8O"
    },
    {
      "type": "Feature",
      "geometry": {
        "coordinates": [
          [
            -38.428802,
            -12.137575
          ],
          [
            -38.770752,
            -11.871538
          ]
        ],
        "type": "LineString"
      },
      "properties": {
        "_umap_options": {
          "color": "Red",
          "opacity": 1,
          "weight": 5
        }
      },
      "id": "Nas1A"
    }
  ]
}