{
  "type": "FeatureCollection",
  "features": [
    {
      "type": "Feature",
      "geometry": {
        "coordinates": [
          [
            -38.94207,
            -12.969117
          ],
          [
            -38.925934,
            -12.949372
          ],
          [
            -38.899155,
            -12.937323
          ],
          [
            -38.881302,
            -12.911215
          ],
          [
            -38.860703,
            -12.884435
          ],
          [
            -38.85006,
            -12.863009
          ]
        ],
        "type": "LineString"
      },
      "properties": {
        "_umap_options": {
          "opacity": 1,
          "weight": 5
        }
      },
      "id": "AuzGI"
    },
    {
      "type": "Feature",
      "geometry": {
        "coordinates": [
          [
            -39.079399,
            -13.005592
          ],
          [
            -39.097252,
            -13.002915
          ],
          [
            -39.121971,
            -12.983507
          ],
          [
            -39.147034,
            -12.990534
          ],
          [
            -39.183426,
            -12.981165
          ],
          [
            -39.227371,
            -12.966105
          ]
        ],
        "type": "LineString"
      },
      "properties": {
        "_umap_options": {
          "opacity": 1,
          "weight": 5
        }
      },
      "id": "V5L02"
    },
    {
      "type": "Feature",
      "geometry": {
        "coordinates": [
          [
            -38.98756,
            -13.015785
          ],
          [
            -39.005241,
            -13.025153
          ],
          [
            -39.023609,
            -13.032848
          ],
          [
            -39.032021,
            -13.026826
          ],
          [
            -39.046268,
            -13.009427
          ],
          [
            -39.079399,
            -13.005747
          ]
        ],
        "type": "LineString"
      },
      "properties": {
        "_umap_options": {
          "opacity": 1,
          "weight": 5
        }
      },
      "id": "R2tzk"
    },
    {
      "type": "Feature",
      "geometry": {
        "coordinates": [
          [
            -38.848171,
            -13.017792
          ],
          [
            -38.893833,
            -12.988848
          ],
          [
            -38.911343,
            -12.984164
          ],
          [
            -38.934689,
            -12.976132
          ],
          [
            -38.939495,
            -12.970434
          ],
          [
            -38.949966,
            -12.970434
          ],
          [
            -38.959236,
            -12.974124
          ],
          [
            -38.964901,
            -12.994202
          ],
          [
            -38.970051,
            -13.005747
          ],
          [
            -38.977261,
            -13.013442
          ],
          [
            -38.98756,
            -13.016454
          ]
        ],
        "type": "LineString"
      },
      "properties": {
        "_umap_options": {
          "opacity": 1,
          "weight": 5
        }
      },
      "id": "f9f2j"
    },
    {
      "type": "Feature",
      "geometry": {
        "coordinates": [
          [
            -38.796844,
            -13.040032
          ],
          [
            -38.802767,
            -13.03493
          ],
          [
            -38.807831,
            -13.03334
          ],
          [
            -38.82019,
            -13.034261
          ],
          [
            -38.848515,
            -13.017604
          ]
        ],
        "type": "LineString"
      },
      "properties": {
        "_umap_options": {
          "opacity": 1,
          "weight": 5
        }
      },
      "id": "Ijxca"
    },
    {
      "type": "Feature",
      "geometry": {
        "coordinates": [
          [
            -38.73436,
            -13.061293
          ],
          [
            -38.759251,
            -13.057948
          ],
          [
            -38.765087,
            -13.062925
          ],
          [
            -38.772554,
            -13.061087
          ],
          [
            -38.784142,
            -13.051137
          ],
          [
            -38.796844,
            -13.040186
          ]
        ],
        "type": "LineString"
      },
      "properties": {
        "_umap_options": {
          "opacity": 1,
          "weight": 5
        }
      },
      "id": "IWkVr"
    },
    {
      "type": "Feature",
      "geometry": {
        "coordinates": [
          [
            -38.618317,
            -12.929665
          ],
          [
            -38.639946,
            -12.95103
          ],
          [
            -38.649902,
            -12.996933
          ],
          [
            -38.669815,
            -13.019686
          ],
          [
            -38.689041,
            -13.036749
          ],
          [
            -38.713074,
            -13.048459
          ],
          [
            -38.734703,
            -13.062175
          ]
        ],
        "type": "LineString"
      },
      "properties": {
        "_umap_options": {
          "opacity": 1,
          "weight": 5
        }
      },
      "id": "xQTJu"
    },
    {
      "type": "Feature",
      "geometry": {
        "coordinates": [
          [
            -38.50296,
            -12.950056
          ],
          [
            -38.519955,
            -12.9343
          ],
          [
            -38.617973,
            -12.928946
          ]
        ],
        "type": "LineString"
      },
      "properties": {
        "_umap_options": {
          "opacity": 1,
          "weight": 5
        }
      },
      "id": "EkGci"
    },
    {
      "type": "Feature",
      "geometry": {
        "coordinates": [
          [
            -39.227371,
            -12.966358
          ],
          [
            -39.293289,
            -12.948955
          ],
          [
            -39.38736,
            -12.931551
          ],
          [
            -39.480743,
            -12.890044
          ],
          [
            -39.537048,
            -12.852548
          ],
          [
            -39.598846,
            -12.77151
          ],
          [
            -39.658585,
            -12.717247
          ],
          [
            -39.688797,
            -12.683076
          ]
        ],
        "type": "LineString"
      },
      "properties": {
        "_umap_options": {
          "opacity": 1,
          "weight": 6
        }
      },
      "id": "F7egE"
    },
    {
      "type": "Feature",
      "geometry": {
        "coordinates": [
          [
            -50.300903,
            -4.538925
          ],
          [
            -47.977295,
            -3.705903
          ],
          [
            -44.346313,
            -2.531806
          ]
        ],
        "type": "LineString"
      },
      "properties": {},
      "id": "p2yDO"
    },
    {
      "type": "Feature",
      "geometry": {
        "coordinates": [
          [
            -48.47168,
            -1.437153
          ],
          [
            -47.416992,
            -4.882039
          ]
        ],
        "type": "LineString"
      },
      "properties": {},
      "id": "sIRKb"
    },
    {
      "type": "Feature",
      "geometry": {
        "coordinates": [
          [
            -50.361328,
            -20.29522
          ],
          [
            -48.790283,
            -21.486156
          ],
          [
            -47.219238,
            -23.072445
          ],
          [
            -46.329346,
            -23.929049
          ]
        ],
        "type": "LineString"
      },
      "properties": {},
      "id": "hgwLV"
    },
    {
      "type": "Feature",
      "geometry": {
        "coordinates": [
          [
            -50.355492,
            -20.258415
          ],
          [
            -50.339527,
            -20.287569
          ]
        ],
        "type": "LineString"
      },
      "properties": {},
      "id": "bQHLS"
    },
    {
      "type": "Feature",
      "geometry": {
        "coordinates": [
          [
            -50.784302,
            -18.358201
          ],
          [
            -50.608521,
            -18.478105
          ],
          [
            -50.644226,
            -18.925695
          ],
          [
            -50.52887,
            -19.050391
          ],
          [
            -50.572815,
            -19.226884
          ],
          [
            -50.358582,
            -19.403187
          ],
          [
            -50.413513,
            -19.796585
          ],
          [
            -50.476685,
            -19.814679
          ],
          [
            -50.355835,
            -20.258618
          ]
        ],
        "type": "LineString"
      },
      "properties": {},
      "id": "tHeB3"
    },
    {
      "type": "Feature",
      "geometry": {
        "coordinates": [
          [
            -49.290161,
            -16.262644
          ],
          [
            -49.529114,
            -16.589408
          ],
          [
            -49.916382,
            -16.863042
          ],
          [
            -50.034485,
            -16.907733
          ],
          [
            -50.141602,
            -17.333079
          ],
          [
            -50.103149,
            -17.542765
          ],
          [
            -50.306396,
            -17.671078
          ],
          [
            -50.990295,
            -18.00583
          ],
          [
            -51.004028,
            -18.099865
          ],
          [
            -50.789795,
            -18.358201
          ]
        ],
        "type": "LineString"
      },
      "properties": {},
      "id": "7ICj7"
    },
    {
      "type": "Feature",
      "geometry": {
        "coordinates": [
          [
            -49.32312,
            -15.179798
          ],
          [
            -49.449463,
            -15.57185
          ],
          [
            -49.378052,
            -15.693552
          ],
          [
            -49.290161,
            -16.264046
          ]
        ],
        "type": "LineString"
      },
      "properties": {},
      "id": "SXN6a"
    },
    {
      "type": "Feature",
      "geometry": {
        "coordinates": [
          [
            -48.955078,
            -11.701332
          ],
          [
            -48.955078,
            -11.706713
          ],
          [
            -49.152832,
            -12.346223
          ],
          [
            -49.042969,
            -12.662719
          ],
          [
            -49.136353,
            -13.059123
          ],
          [
            -49.103394,
            -13.353337
          ],
          [
            -49.11438,
            -13.604473
          ],
          [
            -49.191284,
            -13.850008
          ],
          [
            -49.130859,
            -14.228476
          ],
          [
            -49.152832,
            -14.675423
          ],
          [
            -49.32312,
            -15.169192
          ]
        ],
        "type": "LineString"
      },
      "properties": {},
      "id": "I0sN2"
    },
    {
      "type": "Feature",
      "geometry": {
        "coordinates": [
          [
            -48.80127,
            -10.493636
          ],
          [
            -48.860321,
            -10.890481
          ],
          [
            -48.823242,
            -11.05096
          ],
          [
            -48.733978,
            -11.222131
          ],
          [
            -48.843842,
            -11.573587
          ],
          [
            -48.948212,
            -11.708128
          ]
        ],
        "type": "LineString"
      },
      "properties": {},
      "id": "EO2y4"
    },
    {
      "type": "Feature",
      "geometry": {
        "coordinates": [
          [
            -48.341217,
            -9.20114
          ],
          [
            -48.499146,
            -9.678122
          ],
          [
            -48.652954,
            -9.912302
          ],
          [
            -48.582916,
            -10.149019
          ],
          [
            -48.55957,
            -10.234195
          ],
          [
            -48.753204,
            -10.419339
          ],
          [
            -48.804016,
            -10.496337
          ]
        ],
        "type": "LineString"
      },
      "properties": {},
      "id": "m5rag"
    },
    {
      "type": "Feature",
      "geometry": {
        "coordinates": [
          [
            -47.403259,
            -4.910468
          ],
          [
            -47.362061,
            -4.995317
          ],
          [
            -47.436218,
            -5.227912
          ],
          [
            -47.345581,
            -5.323661
          ],
          [
            -47.427979,
            -5.545195
          ],
          [
            -47.460937,
            -5.714708
          ],
          [
            -47.403259,
            -5.93336
          ],
          [
            -47.3703,
            -6.255713
          ],
          [
            -47.537842,
            -6.853444
          ],
          [
            -47.535095,
            -6.932541
          ],
          [
            -47.647705,
            -7.107053
          ],
          [
            -47.735596,
            -7.12341
          ],
          [
            -47.867432,
            -7.226991
          ],
          [
            -47.982788,
            -7.194283
          ],
          [
            -48.076172,
            -7.335998
          ],
          [
            -48.24646,
            -8.138911
          ],
          [
            -48.202515,
            -8.383605
          ],
          [
            -48.260193,
            -8.5874
          ],
          [
            -48.262939,
            -8.768737
          ],
          [
            -48.371429,
            -8.946541
          ],
          [
            -48.331604,
            -9.147315
          ],
          [
            -48.339672,
            -9.204856
          ]
        ],
        "type": "LineString"
      },
      "properties": {},
      "id": "B6EMe"
    }
  ]
}